{
  "type": "FeatureCollection",
  "features": [
    {
      "type": "Feature",
      "properties": {
        "norad_id": 66658,
        "name": "2025-274J",
        "group": "last-30-days",
        "lat": NaN,
        "lon": NaN,
        "alt_km": NaN,
        "timestamp": "2025-12-01T02:46:51.397569+00:00",
        "meta": {
          "OBJECT_NAME": "2025-274J",
          "OBJECT_ID": "2025-274J",
          "EPOCH": "2025-11-30T19:25:22.491840",
          "MEAN_MOTION": 14.92507752,
          "ECCENTRICITY": 0.0012012,
          "INCLINATION": 97.7371,
          "RA_OF_ASC_NODE": 262.2233,
          "ARG_OF_PERICENTER": 323.3126,
          "MEAN_ANOMALY": 36.727,
          "EPHEMERIS_TYPE": 0,
          "CLASSIFICATION_TYPE": "U",
          "NORAD_CAT_ID": 66658,
          "ELEMENT_SET_NO": 999,
          "REV_AT_EPOCH": 62,
          "BSTAR": 0.00032015,
          "MEAN_MOTION_DOT": 3.235e-05,
          "MEAN_MOTION_DDOT": 0
        }
      },
      "geometry": {
        "type": "Point",
        "coordinates": [
          NaN,
          NaN
        ]
      }
    },
    {
      "type": "Feature",
      "properties": {
        "norad_id": 66659,
        "name": "2025-274K",
        "group": "last-30-days",
        "lat": NaN,
        "lon": NaN,
        "alt_km": NaN,
        "timestamp": "2025-12-01T02:46:51.397586+00:00",
        "meta": {
          "OBJECT_NAME": "2025-274K",
          "OBJECT_ID": "2025-274K",
          "EPOCH": "2025-11-30T17:48:06.338592",
          "MEAN_MOTION": 14.92693828,
          "ECCENTRICITY": 0.0012746,
          "INCLINATION": 97.737,
          "RA_OF_ASC_NODE": 262.1581,
          "ARG_OF_PERICENTER": 324.4538,
          "MEAN_ANOMALY": 35.5831,
          "EPHEMERIS_TYPE": 0,
          "CLASSIFICATION_TYPE": "U",
          "NORAD_CAT_ID": 66659,
          "ELEMENT_SET_NO": 999,
          "REV_AT_EPOCH": 61,
          "BSTAR": 0.00034039,
          "MEAN_MOTION_DOT": 3.46e-05,
          "MEAN_MOTION_DDOT": 0
        }
      },
      "geometry": {
        "type": "Point",
        "coordinates": [
          NaN,
          NaN
        ]
      }
    },
    {
      "type": "Feature",
      "properties": {
        "norad_id": 66660,
        "name": "2025-274L",
        "group": "last-30-days",
        "lat": NaN,
        "lon": NaN,
        "alt_km": NaN,
        "timestamp": "2025-12-01T02:46:51.397604+00:00",
        "meta": {
          "OBJECT_NAME": "2025-274L",
          "OBJECT_ID": "2025-274L",
          "EPOCH": "2025-11-30T17:47:31.369056",
          "MEAN_MOTION": 14.92844124,
          "ECCENTRICITY": 0.0013381,
          "INCLINATION": 97.7374,
          "RA_OF_ASC_NODE": 262.1589,
          "ARG_OF_PERICENTER": 325.0127,
          "MEAN_ANOMALY": 35.0212,
          "EPHEMERIS_TYPE": 0,
          "CLASSIFICATION_TYPE": "U",
          "NORAD_CAT_ID": 66660,
          "ELEMENT_SET_NO": 999,
          "REV_AT_EPOCH": 61,
          "BSTAR": 0.00037594,
          "MEAN_MOTION_DOT": 3.842e-05,
          "MEAN_MOTION_DDOT": 0
        }
      },
      "geometry": {
        "type": "Point",
        "coordinates": [
          NaN,
          NaN
        ]
      }
    },
    {
      "type": "Feature",
      "properties": {
        "norad_id": 66661,
        "name": "2025-274M",
        "group": "last-30-days",
        "lat": NaN,
        "lon": NaN,
        "alt_km": NaN,
        "timestamp": "2025-12-01T02:46:51.397621+00:00",
        "meta": {
          "OBJECT_NAME": "2025-274M",
          "OBJECT_ID": "2025-274M",
          "EPOCH": "2025-11-30T17:46:54.466752",
          "MEAN_MOTION": 14.92997947,
          "ECCENTRICITY": 0.0014048,
          "INCLINATION": 97.7372,
          "RA_OF_ASC_NODE": 262.1593,
          "ARG_OF_PERICENTER": 325.7277,
          "MEAN_ANOMALY": 34.3034,
          "EPHEMERIS_TYPE": 0,
          "CLASSIFICATION_TYPE": "U",
          "NORAD_CAT_ID": 66661,
          "ELEMENT_SET_NO": 999,
          "REV_AT_EPOCH": 61,
          "BSTAR": 0.00029536,
          "MEAN_MOTION_DOT": 3.019e-05,
          "MEAN_MOTION_DDOT": 0
        }
      },
      "geometry": {
        "type": "Point",
        "coordinates": [
          NaN,
          NaN
        ]
      }
    },
    {
      "type": "Feature",
      "properties": {
        "norad_id": 66662,
        "name": "2025-274N",
        "group": "last-30-days",
        "lat": NaN,
        "lon": NaN,
        "alt_km": NaN,
        "timestamp": "2025-12-01T02:46:51.397638+00:00",
        "meta": {
          "OBJECT_NAME": "2025-274N",
          "OBJECT_ID": "2025-274N",
          "EPOCH": "2025-11-30T17:46:37.788096",
          "MEAN_MOTION": 14.93064514,
          "ECCENTRICITY": 0.0014439,
          "INCLINATION": 97.7373,
          "RA_OF_ASC_NODE": 262.1595,
          "ARG_OF_PERICENTER": 325.1057,
          "MEAN_ANOMALY": 34.9215,
          "EPHEMERIS_TYPE": 0,
          "CLASSIFICATION_TYPE": "U",
          "NORAD_CAT_ID": 66662,
          "ELEMENT_SET_NO": 999,
          "REV_AT_EPOCH": 61,
          "BSTAR": 0.00019694,
          "MEAN_MOTION_DOT": 1.997e-05,
          "MEAN_MOTION_DDOT": 0
        }
      },
      "geometry": {
        "type": "Point",
        "coordinates": [
          NaN,
          NaN
        ]
      }
    },
    {
      "type": "Feature",
      "properties": {
        "norad_id": 66663,
        "name": "KSLV-II R/B",
        "group": "last-30-days",
        "lat": NaN,
        "lon": NaN,
        "alt_km": NaN,
        "timestamp": "2025-12-01T02:46:51.397657+00:00",
        "meta": {
          "OBJECT_NAME": "KSLV-II R/B",
          "OBJECT_ID": "2025-274P",
          "EPOCH": "2025-11-30T19:05:37.538304",
          "MEAN_MOTION": 14.97216641,
          "ECCENTRICITY": 0.0044329,
          "INCLINATION": 97.7404,
          "RA_OF_ASC_NODE": 262.2533,
          "ARG_OF_PERICENTER": 358.2629,
          "MEAN_ANOMALY": 1.8431,
          "EPHEMERIS_TYPE": 0,
          "CLASSIFICATION_TYPE": "U",
          "NORAD_CAT_ID": 66663,
          "ELEMENT_SET_NO": 999,
          "REV_AT_EPOCH": 62,
          "BSTAR": -0.00029874,
          "MEAN_MOTION_DOT": -3.586e-05,
          "MEAN_MOTION_DDOT": 0
        }
      },
      "geometry": {
        "type": "Point",
        "coordinates": [
          NaN,
          NaN
        ]
      }
    },
    {
      "type": "Feature",
      "properties": {
        "norad_id": 66664,
        "name": "SOYUZ-MS 28",
        "group": "last-30-days",
        "lat": NaN,
        "lon": NaN,
        "alt_km": NaN,
        "timestamp": "2025-12-01T02:46:51.397674+00:00",
        "meta": {
          "OBJECT_NAME": "SOYUZ-MS 28",
          "OBJECT_ID": "2025-275A",
          "EPOCH": "2025-11-30T13:03:31.260384",
          "MEAN_MOTION": 15.49206887,
          "ECCENTRICITY": 0.000369,
          "INCLINATION": 51.6312,
          "RA_OF_ASC_NODE": 202.8529,
          "ARG_OF_PERICENTER": 187.0517,
          "MEAN_ANOMALY": 173.042,
          "EPHEMERIS_TYPE": 0,
          "CLASSIFICATION_TYPE": "U",
          "NORAD_CAT_ID": 66664,
          "ELEMENT_SET_NO": 999,
          "REV_AT_EPOCH": 55,
          "BSTAR": 0.0001518,
          "MEAN_MOTION_DOT": 7.982e-05,
          "MEAN_MOTION_DDOT": 0
        }
      },
      "geometry": {
        "type": "Point",
        "coordinates": [
          NaN,
          NaN
        ]
      }
    }
  ]
}