2025-274J               
1 66658U 25274J   25334.80928810  .00003235  00000+0  32015-3 0  9990
2 66658  97.7371 262.2233 0012012 323.3126  36.7270 14.92507752   628
2025-274K               
1 66659U 25274K   25334.74174003  .00003460  00000+0  34039-3 0  9999
2 66659  97.7370 262.1581 0012746 324.4538  35.5831 14.92693828   615
2025-274L               
1 66660U 25274L   25334.74133529  .00003842  00000+0  37594-3 0  9992
2 66660  97.7374 262.1589 0013381 325.0127  35.0212 14.92844124   611
2025-274M               
1 66661U 25274M   25334.74090818  .00003019  00000+0  29536-3 0  9999
2 66661  97.7372 262.1593 0014048 325.7277  34.3034 14.92997947   615
2025-274N               
1 66662U 25274N   25334.74071514  .00001997  00000+0  19694-3 0  9999
2 66662  97.7373 262.1595 0014439 325.1057  34.9215 14.93064514   616
KSLV-II R/B             
1 66663U 25274P   25334.79557336 -.00003586  00000+0 -29874-3 0  9995
2 66663  97.7404 262.2533 0044329 358.2629   1.8431 14.97216641   626
SOYUZ-MS 28             
1 66664U 25275A   25334.54411181  .00007982  00000+0  15180-3 0  9994
2 66664  51.6312 202.8529 0003690 187.0517 173.0420 15.49206887   550
